BRITE-CA1 (TORONTO)     
1 40020U 14033L   24172.97032142  .00001339  00000+0  22216-3 0  9992
2 40020  97.8779 309.9594 0084386  80.3434 280.7292 14.69469404535533
OCO 2                   
1 40059U 14035A   24172.97519992  .00000657  00000+0  15594-3 0  9992
2 40059  98.2027 113.6969 0001052  71.6764 288.4549 14.57087153530304
BRITE-PL2 (HEWELIUSZ)   
1 40119U 14049B   24172.91365634  .00001960  00000+0  21436-3 0  9990
2 40119  97.8838 272.5624 0015503 357.3639   2.7494 14.88918240533134
RESURS-P 2              
1 40360U 14087A   24173.16824686  .00025373  00000+0  31903-3 0  9999
2 40360  97.1523 259.7546 0004595 273.5418  86.5314 15.59650679531686
MMS 1                   
1 40482U 15011A   24172.41667824 -.00000647  00000+0  00000+0 0  9996
2 40482  47.9886  11.2037 9098912 146.6664  97.7967  0.28421602 15384
MMS 2                   
1 40483U 15011B   24172.41667824 -.00000647  00000+0  00000+0 0  9997
2 40483  47.9947  11.1969 9099142 146.6690  97.6431  0.28422836  1381
MMS 3                   
1 40484U 15011C   24172.41667824 -.00000647  00000+0  00000+0 0  9998
2 40484  47.9946  11.1970 9099146 146.6690  97.7220  0.28422816 15365
MMS 4                   
1 40485U 15011D   24172.41667824 -.00000647  00000+0  00000+0 0  9999
2 40485  47.9886  11.2037 9098927 146.6662  97.5577  0.28421592 15362
ASTROSAT                
1 40930U 15052A   24172.36142251  .00002019  00000+0  18082-3 0  9992
2 40930   5.9982 336.2732 0007748 120.7445 239.3446 14.79011014471939
DAMPE                   
1 41173U 15078A   24173.12754986  .00001618  00000+0  63335-4 0  9995
2 41173  97.4295 166.6426 0014345 124.1695 236.0906 15.27189699473580
PISAT                   
1 41784U 16059B   24172.97564280  .00001278  00000+0  24040-3 0  9992
2 41784  97.8332 194.8117 0030590   4.4888 355.6585 14.65957017413211
HXMT (HUIYAN)           
1 42758U 17034A   24173.18909997  .00006278  00000+0  34559-3 0  9991
2 42758  43.0143 252.6842 0013993 187.2283 172.8364 15.14567245387467
FLYING LAPTOP           
1 42831U 17042G   24173.19703990  .00002309  00000+0  21460-3 0  9996
2 42831  97.3857 353.9096 0014338  66.9455 293.3277 14.95187223377730
ZHANGHENG 1 (CSES)      
1 43194U 18015C   24173.15764358  .00011909  00000+0  54610-3 0  9990
2 43194  97.6101 316.9185 0012664 140.5046 219.7114 15.20532004354299
SALSAT                  
1 46495U 20068K   24172.84485598  .00006096  00000+0  34648-3 0  9999
2 46495  97.8161 132.2283 0012158 305.7751  54.2348 15.13220917204865
IXPE                    
1 49954U 21121A   24173.00001157  .00003948  00000+0  25627-3 0  9997
2 49954   0.2323   4.8723 0009216 336.0585 164.3645 14.98263237138472
<!DOCTYPE html PUBLIC "-//W3C//DTD XHTML 1.0 Strict//EN" "http://www.w3.org/TR/xhtml1/DTD/xhtml1-strict.dtd">
<html xmlns="http://www.w3.org/1999/xhtml">
<head>
<meta http-equiv="Content-Type" content="text/html; charset=iso-8859-1"/>
<title>404 - File Not Found.</title>
<style type="text/css">
<!--
body{margin:0;font-size:.7em;font-family:Verdana, Arial, Helvetica, sans-serif;background:#EEEEEE;}
fieldset{padding:0 15px 10px 15px;}
h1{font-size:2.4em;margin:0;color:#FFF;}
h2{font-size:1.7em;margin:0;color:#CC0000;}
h3{font-size:1.2em;margin:10px 0 0 0;color:#000000;}
#header{width:96%;margin:0 0 0 0;padding:6px 2% 6px 2%;font-family:"trebuchet MS", Verdana, sans-serif;color:#FFF;
background-color:#555555;}
#content{margin:0 0 0 2%;position:relative;}
.content-container{background:#FFF;width:96%;margin-top:8px;padding:10px;position:relative;}
-->
</style>
</head>
<body>
<div id="header"><h1>Server Error</h1></div>
<div id="content">
 <div class="content-container"><fieldset>
  <h2>404 - File Not Found.</h2>
  <h3>File not found for celestrak.org/NORAD/elements/ses.txt.</h3>
  <h3>Please contact <a href="mailto:ts.kelso@celestrak.org">ts.kelso@celestrak.org</a> if you have other questions.</h3>
 </fieldset></div>
</div>
</body>
</html>
ISS (ZARYA)             
1 25544U 98067A   24173.41035641 -.00101179  00000+0 -18119-2 0  9993
2 25544  51.6399 294.3683 0010427 351.1491 118.1351 15.49552914459203
CSS (TIANHE)            
1 48274U 21035A   24173.12951065  .00035111  00000+0  38865-3 0  9995
2 48274  41.4689  59.0808 0004692 256.6232 103.4084 15.62267360179719
ISS (NAUKA)             
1 49044U 21066A   24172.81037444  .00016549  00000+0  30131-3 0  9998
2 49044  51.6400 297.3385 0010592 348.1115  11.9622 15.49572895164395
FREGAT DEB              
1 49271U 11037PF  24172.90709837  .00028870  00000+0  57011-1 0  9993
2 49271  51.6773 337.3315 1004022 132.5973 236.4109 12.17230449135656
CSS (WENTIAN)           
1 53239U 22085A   24172.93773199  .00032768  00000+0  36330-3 0  9996
2 53239  41.4689  60.2501 0004693 255.3365 104.6954 15.62250995102478
CSS (MENGTIAN)          
1 54216U 22143A   24172.93773199  .00032768  00000+0  36330-3 0  9997
2 54216  41.4689  60.2501 0004693 255.3365 104.6954 15.62250995 92270
ISS DEB                 
1 58229U 98067WC  24172.57274198  .00956212  56019-3  85307-3 0  9990
2 58229  51.6209 269.2557 0013182 331.5350  28.4944 16.12072242 36245
BEAK                    
1 58612U 98067WD  24172.98852265  .00799086  34562-3  97000-3 0  9994
2 58612  51.6250 272.1162 0014039 329.4772  30.5423 16.07330441 29192
TIANZHOU-7              
1 58811U 24013A   24172.93773199  .00032768  00000+0  36330-3 0  9990
2 58811  41.4689  60.2501 0004693 255.3365 104.6954 15.62250995172421
CYGNUS NG-20            
1 58898U 24021A   24172.81037444  .00016549  00000+0  30131-3 0  9999
2 58898  51.6400 297.3385 0010592 348.1115  11.9622 15.49572895 21541
PROGRESS-MS 26          
1 58961U 24029A   24172.81037444  .00016549  00000+0  30131-3 0  9998
2 58961  51.6400 297.3385 0010592 348.1115  11.9622 15.49572895 18841
CREW DRAGON 8           
1 59097U 24042A   24172.81037444  .00016549  00000+0  30131-3 0  9994
2 59097  51.6400 297.3385 0010592 348.1115  11.9622 15.49572895 16042
SOYUZ-MS 25             
1 59294U 24055A   24172.81037444  .00016549  00000+0  30131-3 0  9997
2 59294  51.6400 297.3385 0010592 348.1115  11.9622 15.49572895 13341
MICROORBITER-1          
1 59483U 98067WF  24172.72358758  .00110102  00000+0  10214-2 0  9994
2 59483  51.6336 293.7479 0010221 318.5713  41.4507 15.66556696 11031
CURTIS                  
1 59507U 98067WG  24172.66492065  .00075699  00000+0  82137-3 0  9999
2 59507  51.6337 294.8567 0007643 319.0872  40.9547 15.62796620 11021
KASHIWA                 
1 59508U 98067WH  24172.75218895  .00137599  00000+0  11646-2 0  9991
2 59508  51.6313 293.1827 0011389 319.9057  40.1098 15.68688183 11059
1998-067WJ              
1 59559U 98067WJ  24172.64897258  .00066975  00000+0  76751-3 0  9999
2 59559  51.6362 295.5128 0007337 297.1991  62.8254 15.61442356  9887
1998-067WK              
1 59560U 98067WK  24172.75513460  .00170193  00000+0  13372-2 0  9990
2 59560  51.6328 293.2093 0013679 308.1367  51.8397 15.70334549  9850
1998-067WL              
1 59561U 98067WL  24172.81787866  .00033966  00000+0  47798-3 0  9997
2 59561  51.6368 295.8906 0004598 305.9906  54.0659 15.56322205  9867
BURSTCUBE               
1 59562U 98067WM  24172.71566426  .00075999  00000+0  86214-3 0  9992
2 59562  51.6366 295.2099 0007874 323.6450  36.4009 15.61647437  9871
SNOOPI                  
1 59563U 98067WN  24172.81061252  .00064263  00000+0  77916-3 0  9992
2 59563  51.6380 295.0948 0006599 322.9436  37.1100 15.59994921  9889
SHENZHOU-18 (SZ-18)     
1 59591U 24078A   24172.93773199  .00032768  00000+0  36330-3 0  9997
2 59591  41.4689  60.2501 0004693 255.3365 104.6954 15.62250995  8087
1998-067WP              
1 59596U 98067WP  24172.79103979  .00093728  00000+0  95814-3 0  9993
2 59596  51.6347 294.2074 0008907 303.6288  56.3857 15.64211396  9926
1998-067WQ              
1 59597U 98067WQ  24172.85228741  .00093273  00000+0  94751-3 0  9990
2 59597  51.6377 293.8765 0009065 303.9943  56.0190 15.64371158  9907
SZ-17 MODULE            
1 59624U 23164C   24172.91962255  .00031495  00000+0  30474-3 0  9999
2 59624  41.4780  60.1354 0008059 279.4511  80.5419 15.65691374  8127
PROGRESS-MS 27          
1 59913U 24103A   24172.48791663  .00015904  00000+0  29004-3 0  9993
2 59913  51.6399 298.9350 0010535 347.1139  12.9579 15.49560317459068
STARLINER CFT-1         
1 59968U 24109A   24172.81037444  .00016549  00000+0  30131-3 0  9995
2 59968  51.6400 297.3385 0010592 348.1115  11.9622 15.49572895  1548
TDRS 3                  
1 19548U 88091B   24172.36579278 -.00000287  00000+0  00000+0 0  9992
2 19548  13.1601 345.9004 0033882 343.0148  23.0066  1.00270522118087
HST                     
1 20580U 90037B   24173.06543191  .00005484  00000+0  25449-3 0  9997
2 20580  28.4698 319.1479 0003098  78.7776 281.3164 15.17804489677888
TDRS 5                  
1 21639U 91054B   24172.43466208 -.00000291  00000+0  00000+0 0  9990
2 21639  14.1623 359.0843 0002480 216.5773 147.8431  1.00268457120427
TDRS 6                  
1 22314U 93003B   24172.36640194 -.00000285  00000+0  00000+0 0  9990
2 22314  14.1628   2.3915 0010959 153.5534 199.1788  1.00275479115090
TDRS 7                  
1 23613U 95035B   24172.80650341 -.00000192  00000+0  00000+0 0  9991
2 23613  13.6797 353.2074 0028368  70.4318 221.1191  1.00273462105967
ISS (ZARYA)             
1 25544U 98067A   24173.41035641 -.00101179  00000+0 -18119-2 0  9993
2 25544  51.6399 294.3683 0010427 351.1491 118.1351 15.49552914459203
LANDSAT 7               
1 25682U 99020A   24173.19628801  .00000600  00000+0  13209-3 0  9998
2 25682  97.8870 199.7957 0001406  80.8916 354.0920 14.60707306339781
TERRA                   
1 25994U 99068A   24173.20121120  .00000623  00000+0  13983-3 0  9994
2 25994  98.0479 236.5711 0002147  31.8726  31.6233 14.59820338303753
